{"fetched_at":"2026-07-10T07:59:14.706Z","source":"https://celestrak.org/NORAD/elements/gp.php?NAME=PLEIADES&FORMAT=JSON","constellation":"pleiades-neo","records":[{"OBJECT_NAME":"PLEIADES NEO 3","OBJECT_ID":"2021-034A","EPOCH":"2026-07-09T21:02:11.854176","CLASSIFICATION_TYPE":"U","MEAN_MOTION":14.81673152,"ECCENTRICITY":0.0001321,"INCLINATION":97.8936,"RA_OF_ASC_NODE":265.3166,"ARG_OF_PERICENTER":93.2029,"MEAN_ANOMALY":266.9334,"EPHEMERIS_TYPE":0,"NORAD_CAT_ID":48268,"ELEMENT_SET_NO":999,"REV_AT_EPOCH":28101,"BSTAR":0.000009422,"MEAN_MOTION_DOT":2.2e-7,"MEAN_MOTION_DDOT":0},{"OBJECT_NAME":"PLEIADES NEO 4","OBJECT_ID":"2021-073E","EPOCH":"2026-07-09T20:13:33.491136","CLASSIFICATION_TYPE":"U","MEAN_MOTION":14.81673701,"ECCENTRICITY":0.0001357,"INCLINATION":97.8934,"RA_OF_ASC_NODE":265.2798,"ARG_OF_PERICENTER":92.7337,"MEAN_ANOMALY":267.4031,"EPHEMERIS_TYPE":0,"NORAD_CAT_ID":49070,"ELEMENT_SET_NO":999,"REV_AT_EPOCH":26472,"BSTAR":0.00014774,"MEAN_MOTION_DOT":0.00001111,"MEAN_MOTION_DDOT":0}]}
